SWARM B                 
1 39451U 13067A   26156.28403885  .00003408  00000+0  12178-3 0  9993
2 39451  87.7440 345.9339 0003400  92.6414 267.5225 15.28475852681420
SWARM A                 
1 39452U 13067B   26156.15310506  .00010311  00000+0  17886-3 0  9999
2 39452  87.3330  60.7108 0003028  91.1732 268.9875 15.50702228704386
SWARM C                 
1 39453U 13067C   26156.15299648  .00010227  00000+0  17738-3 0  9995
2 39453  87.3329  59.2921 0003006  91.2268 268.9337 15.50704390704343
BRITE-CA1 (TORONTO)     
1 40020U 14033L   26156.28335357  .00000737  00000+0  11859-3 0  9996
2 40020  97.9726 285.4318 0077607 315.7555  43.7465 14.72659814640463
OCO 2                   
1 40059U 14035A   26156.20693826  .00000462  00000+0  11252-3 0  9992
2 40059  98.2015  97.6828 0001471  87.4603 272.6763 14.57100937634302
BRITE-PL2 (HEWELIUSZ)   
1 40119U 14049B   26155.25097445  .00002888  00000+0  27217-3 0  9995
2 40119  97.9085 267.1526 0014906 148.0147 212.1981 14.94543231639513
MMS 1                   
1 40482U 15011A   26156.33336806 -.00000337  00000+0  00000+0 0  9990
2 40482  72.0609 348.9168 8339059 167.0647 169.6510  0.28354043  1379
MMS 2                   
1 40483U 15011B   26156.33336806 -.00000337  00000+0  00000+0 0  9991
2 40483  72.0610 348.9190 8339836 167.0704 169.6392  0.28354066  1377
MMS 3                   
1 40484U 15011C   26156.33336806 -.00000337  00000+0  00000+0 0  9992
2 40484  72.0640 348.9235 8339031 167.0649 169.6360  0.28354027  1378
MMS 4                   
1 40485U 15011D   26156.33336806 -.00000337  00000+0  00000+0 0  9993
2 40485  72.0673 348.9180 8338997 167.0733 169.6247  0.28354867  1374
ASTROSAT                
1 40930U 15052A   26156.11670951  .00001856  00000+0  14413-3 0  9994
2 40930   5.9960 242.2474 0008367 226.2463 133.6973 14.82487176578034
DAMPE                   
1 41173U 15078A   26156.27130524  .00001846  00000+0  64588-4 0  9994
2 41173  97.4558 161.6805 0013545 113.9776 246.2884 15.30754917582725
PISAT                   
1 41784U 16059B   26156.29181750  .00000975  00000+0  17358-3 0  9995
2 41784  97.8178 157.2560 0027623 242.2192 117.6213 14.68961871517997
HXMT (HUIYAN)           
1 42758U 17034A   26156.29386593  .00004558  00000+0  22675-3 0  9992
2 42758  43.0136 249.2636 0030227  68.5173 291.8895 15.18382781495858
FLYING LAPTOP           
1 42831U 17042G   26156.32014637  .00004218  00000+0  33317-3 0  9992
2 42831  97.4646 312.3137 0018875 160.5709 199.6240 15.01065347484675
ZHANGHENG 1-01 (CSES-1) 
1 43194U 18015C   26156.29510433  .00006225  00000+0  28581-3 0  9994
2 43194  97.6867 321.7185 0017307 311.0261  48.9477 15.20651626462831
SALSAT                  
1 46495U 20068K   26155.97862976  .00008911  00000+0  31300-3 0  9995
2 46495  97.8851 158.3021 0009245 356.4519   3.6652 15.29615280313492
IXPE                    
1 49954U 21121A   26156.33336806  .00010400  00000+0  56328-3 0  9991
2 49954   0.2320  46.7291 0007626 259.7540 230.3496 15.10140403  5744
SMILE                   
1 69123U 26109A   26144.65318427 -.00001976  00000+0 -42379-3 0  9994
2 69123  70.0007 229.2745 0009123 259.5159 100.4951 14.57062785   802
