OBJECT_NAME,OBJECT_ID,EPOCH,MEAN_MOTION,ECCENTRICITY,INCLINATION,RA_OF_ASC_NODE,ARG_OF_PERICENTER,MEAN_ANOMALY,EPHEMERIS_TYPE,CLASSIFICATION_TYPE,NORAD_CAT_ID,ELEMENT_SET_NO,REV_AT_EPOCH,BSTAR,MEAN_MOTION_DOT,MEAN_MOTION_DDOT
SWARM B,2013-067A,2026-06-05T06:49:00.956640,15.28475852,.00034001,87.7440,345.9339,92.6414,267.5225,0,U,39451,999,68142,.12177823E-3,.3408E-4,0
SWARM A,2013-067B,2026-06-05T03:40:28.277184,15.50702228,.00030281,87.3330,60.7108,91.1732,268.9875,0,U,39452,999,70438,.17886003E-3,.10311E-3,0
SWARM C,2013-067C,2026-06-05T03:40:18.895872,15.50704390,.00030064,87.3329,59.2921,91.2268,268.9337,0,U,39453,999,70434,.17737786E-3,.10227E-3,0
BRITE-CA1 (TORONTO),2014-033L,2026-06-05T06:48:01.748448,14.72659814,.00776073,97.9726,285.4318,315.7555,43.7465,0,U,40020,999,64046,.11859125E-3,.737E-5,0
OCO 2,2014-035A,2026-06-05T04:57:59.465664,14.57100937,.00014714,98.2015,97.6828,87.4603,272.6763,0,U,40059,999,63430,.11251987E-3,.462E-5,0
BRITE-PL2 (HEWELIUSZ),2014-049B,2026-06-04T06:01:24.192480,14.94543231,.00149068,97.9085,267.1526,148.0147,212.1981,0,U,40119,999,63951,.27217109E-3,.2888E-4,0
MMS 1,2015-011A,2026-06-05T08:00:03.000384,0.28354043,.83390595,72.0609,348.9168,167.0647,169.6510,0,U,40482,999,137,0,-.337E-5,0
MMS 2,2015-011B,2026-06-05T08:00:03.000384,0.28354066,.83398369,72.0610,348.9190,167.0704,169.6392,0,U,40483,999,137,0,-.337E-5,0
MMS 3,2015-011C,2026-06-05T08:00:03.000384,0.28354027,.83390311,72.0640,348.9235,167.0649,169.6360,0,U,40484,999,137,0,-.337E-5,0
MMS 4,2015-011D,2026-06-05T08:00:03.000384,0.28354867,.83389971,72.0673,348.9180,167.0733,169.6247,0,U,40485,999,137,0,-.337E-5,0
ASTROSAT,2015-052A,2026-06-05T02:48:03.701664,14.82487176,.00083678,5.9960,242.2474,226.2463,133.6973,0,U,40930,999,57803,.14413355E-3,.1856E-4,0
DAMPE,2015-078A,2026-06-05T06:30:40.772736,15.30754917,.00135456,97.4558,161.6805,113.9776,246.2884,0,U,41173,999,58272,.64588073E-4,.1846E-4,0
PISAT,2016-059B,2026-06-05T07:00:13.032000,14.68961871,.00276237,97.8178,157.2560,242.2192,117.6213,0,U,41784,999,51799,.17358247E-3,.975E-5,0
HXMT (HUIYAN),2017-034A,2026-06-05T07:03:10.016352,15.18382781,.00302279,43.0136,249.2636,68.5173,291.8895,0,U,42758,999,49585,.22675427E-3,.4558E-4,0
FLYING LAPTOP,2017-042G,2026-06-05T07:41:00.646368,15.01065347,.00188758,97.4646,312.3137,160.5709,199.6240,0,U,42831,999,48467,.33317316E-3,.4218E-4,0
ZHANGHENG 1-01 (CSES-1),2018-015C,2026-06-05T07:04:57.014112,15.20651626,.00173077,97.6867,321.7185,311.0261,48.9477,0,U,43194,999,46283,.28580729E-3,.6225E-4,0
SALSAT,2020-068K,2026-06-04T23:29:13.611264,15.29615280,.0009245,97.8851,158.3021,356.4519,3.6652,0,U,46495,999,31349,.3129959E-3,.8911E-4,0
IXPE,2021-121A,2026-06-05T08:00:03.000384,15.10140403,.00076267,0.2320,46.7291,259.7540,230.3496,0,U,49954,999,574,.56327889E-3,.104E-3,0
SMILE,2026-109A,2026-05-24T15:40:35.120928,14.57062785,.00091232,70.0007,229.2745,259.5159,100.4951,0,U,69123,999,80,-.42378883E-3,-.1976E-4,0
